{
  "type": "FeatureCollection",
  "features": [
    {
      "type": "Feature",
      "properties": {
        "norad_id": 43262,
        "name": "GAOFEN-1 04",
        "group": "resource",
        "lat": -77.28090911298403,
        "lon": -166.30825237906424,
        "alt_km": 648.4254939542589,
        "timestamp": "2025-12-20T20:38:44.101749+00:00",
        "meta_object_name": "GAOFEN-1 04",
        "meta_object_id": "2018-031D",
        "meta_epoch": "2025-12-20T14:35:28.530240",
        "meta_mean_motion": 14.76423267,
        "meta_eccentricity": 7.397e-05,
        "meta_inclination": 98.0804,
        "meta_ra_of_asc_node": 52.4471,
        "meta_arg_of_pericenter": 53.0792,
        "meta_mean_anomaly": 307.0486,
        "meta_ephemeris_type": 0,
        "meta_classification_type": "U",
        "meta_norad_cat_id": 43262,
        "meta_element_set_no": 999,
        "meta_rev_at_epoch": 41633,
        "meta_bstar": 0.00017937703,
        "meta_mean_motion_dot": 1.195e-05,
        "meta_mean_motion_ddot": 0,
        "tle_line1": "1 43262U 18031D   25354.60796910  .00001195  00000+0  17938-3 0  9993",
        "tle_line2": "2 43262  98.0804  52.4471 0000739  53.0792 307.0486 14.76423267416333"
      },
      "geometry": {
        "type": "Point",
        "coordinates": [
          -166.30825237906424,
          -77.28090911298403
        ]
      }
    },
    {
      "type": "Feature",
      "properties": {
        "norad_id": 43437,
        "name": "SENTINEL-3B",
        "group": "resource",
        "lat": 54.79598257396689,
        "lon": 47.504402227699664,
        "alt_km": 796.4884916124165,
        "timestamp": "2025-12-20T20:38:44.101759+00:00",
        "meta_object_name": "SENTINEL-3B",
        "meta_object_id": "2018-039A",
        "meta_epoch": "2025-12-20T01:52:15.630816",
        "meta_mean_motion": 14.26736631,
        "meta_eccentricity": 0.00016258,
        "meta_inclination": 98.6258,
        "meta_ra_of_asc_node": 59.1578,
        "meta_arg_of_pericenter": 94.4485,
        "meta_mean_anomaly": 265.6881,
        "meta_ephemeris_type": 0,
        "meta_classification_type": "U",
        "meta_norad_cat_id": 43437,
        "meta_element_set_no": 999,
        "meta_rev_at_epoch": 39858,
        "meta_bstar": 5.9718568e-05,
        "meta_mean_motion_dot": 1.01e-06,
        "meta_mean_motion_ddot": 0,
        "tle_line1": "1 43437U 18039A   25354.07795869  .00000101  00000+0  59719-4 0  9998",
        "tle_line2": "2 43437  98.6258  59.1578 0001625  94.4485 265.6881 14.26736631398582"
      },
      "geometry": {
        "type": "Point",
        "coordinates": [
          47.504402227699664,
          54.79598257396689
        ]
      }
    },
    {
      "type": "Feature",
      "properties": {
        "norad_id": 43461,
        "name": "GAOFEN-5 01",
        "group": "resource",
        "lat": -51.287710810826276,
        "lon": -31.362984645299427,
        "alt_km": 698.3902723031406,
        "timestamp": "2025-12-20T20:38:44.101770+00:00",
        "meta_object_name": "GAOFEN-5 01",
        "meta_object_id": "2018-043A",
        "meta_epoch": "2025-12-20T09:22:23.775744",
        "meta_mean_motion": 14.60417485,
        "meta_eccentricity": 5.345e-05,
        "meta_inclination": 98.4336,
        "meta_ra_of_asc_node": 317.4917,
        "meta_arg_of_pericenter": 291.8089,
        "meta_mean_anomaly": 68.3053,
        "meta_ephemeris_type": 0,
        "meta_classification_type": "U",
        "meta_norad_cat_id": 43461,
        "meta_element_set_no": 999,
        "meta_rev_at_epoch": 40559,
        "meta_bstar": 7.7169973e-05,
        "meta_mean_motion_dot": 3.25e-06,
        "meta_mean_motion_ddot": 0,
        "tle_line1": "1 43461U 18043A   25354.39055296  .00000325  00000+0  77170-4 0  9997",
        "tle_line2": "2 43461  98.4336 317.4917 0000534 291.8089  68.3053 14.60417485405592"
      },
      "geometry": {
        "type": "Point",
        "coordinates": [
          -31.362984645299427,
          -51.287710810826276
        ]
      }
    },
    {
      "type": "Feature",
      "properties": {
        "norad_id": 43484,
        "name": "GAOFEN-6",
        "group": "resource",
        "lat": 54.00651718494071,
        "lon": 47.97306667415046,
        "alt_km": 626.3367844580034,
        "timestamp": "2025-12-20T20:38:44.101780+00:00",
        "meta_object_name": "GAOFEN-6",
        "meta_object_id": "2018-048A",
        "meta_epoch": "2025-12-20T13:53:37.069728",
        "meta_mean_motion": 14.76580113,
        "meta_eccentricity": 0.00128713,
        "meta_inclination": 97.8029,
        "meta_ra_of_asc_node": 58.583,
        "meta_arg_of_pericenter": 40.4769,
        "meta_mean_anomaly": 319.7396,
        "meta_ephemeris_type": 0,
        "meta_classification_type": "U",
        "meta_norad_cat_id": 43484,
        "meta_element_set_no": 999,
        "meta_rev_at_epoch": 40703,
        "meta_bstar": 0.00011111454,
        "meta_mean_motion_dot": 7.27e-06,
        "meta_mean_motion_ddot": 0,
        "tle_line1": "1 43484U 18048A   25354.57890127  .00000727  00000+0  11111-3 0  9995",
        "tle_line2": "2 43484  97.8029  58.5830 0012871  40.4769 319.7396 14.76580113407036"
      },
      "geometry": {
        "type": "Point",
        "coordinates": [
          47.97306667415046,
          54.00651718494071
        ]
      }
    },
    {
      "type": "Feature",
      "properties": {
        "norad_id": 43585,
        "name": "GAOFEN-11 01",
        "group": "resource",
        "lat": -4.88699464014144,
        "lon": -122.88752568221418,
        "alt_km": 421.98183695525495,
        "timestamp": "2025-12-20T20:38:44.101790+00:00",
        "meta_object_name": "GAOFEN-11 01",
        "meta_object_id": "2018-063A",
        "meta_epoch": "2025-12-20T15:12:00.606240",
        "meta_mean_motion": 15.49433855,
        "meta_eccentricity": 0.00039424,
        "meta_inclination": 97.1561,
        "meta_ra_of_asc_node": 57.5029,
        "meta_arg_of_pericenter": 272.8268,
        "meta_mean_anomaly": 87.2533,
        "meta_ephemeris_type": 0,
        "meta_classification_type": "U",
        "meta_norad_cat_id": 43585,
        "meta_element_set_no": 999,
        "meta_rev_at_epoch": 41264,
        "meta_bstar": 0.00024870313,
        "meta_mean_motion_dot": 0.00013581,
        "meta_mean_motion_ddot": 0,
        "tle_line1": "1 43585U 18063A   25354.63334035  .00013581  00000+0  24870-3 0  9990",
        "tle_line2": "2 43585  97.1561  57.5029 0003942 272.8268  87.2533 15.49433855412649"
      },
      "geometry": {
        "type": "Point",
        "coordinates": [
          -122.88752568221418,
          -4.88699464014144
        ]
      }
    },
    {
      "type": "Feature",
      "properties": {
        "norad_id": 43613,
        "name": "ICESAT-2",
        "group": "resource",
        "lat": 24.023072730210604,
        "lon": -117.96581412685296,
        "alt_km": 480.88776719026555,
        "timestamp": "2025-12-20T20:38:44.101800+00:00",
        "meta_object_name": "ICESAT-2",
        "meta_object_id": "2018-070A",
        "meta_epoch": "2025-12-20T14:15:16.408224",
        "meta_mean_motion": 15.28233244,
        "meta_eccentricity": 0.00028644,
        "meta_inclination": 92.0047,
        "meta_ra_of_asc_node": 242.8569,
        "meta_arg_of_pericenter": 120.5392,
        "meta_mean_anomaly": 239.614,
        "meta_ephemeris_type": 0,
        "meta_classification_type": "U",
        "meta_norad_cat_id": 43613,
        "meta_element_set_no": 999,
        "meta_rev_at_epoch": 40518,
        "meta_bstar": 0.00030980614,
        "meta_mean_motion_dot": 8.521e-05,
        "meta_mean_motion_ddot": 0,
        "tle_line1": "1 43613U 18070A   25354.59393991  .00008521  00000+0  30981-3 0  9999",
        "tle_line2": "2 43613  92.0047 242.8569 0002864 120.5392 239.6140 15.28233244405186"
      },
      "geometry": {
        "type": "Point",
        "coordinates": [
          -117.96581412685296,
          24.023072730210604
        ]
      }
    },
    {
      "type": "Feature",
      "properties": {
        "norad_id": 43719,
        "name": "HYSIS",
        "group": "resource",
        "lat": 28.53248656517461,
        "lon": -117.81064807926036,
        "alt_km": 632.3869561733763,
        "timestamp": "2025-12-20T20:38:44.101810+00:00",
        "meta_object_name": "HYSIS",
        "meta_object_id": "2018-096A",
        "meta_epoch": "2025-12-20T15:05:33.193824",
        "meta_mean_motion": 14.78667771,
        "meta_eccentricity": 0.00010706,
        "meta_inclination": 98.0095,
        "meta_ra_of_asc_node": 57.5686,
        "meta_arg_of_pericenter": 51.9002,
        "meta_mean_anomaly": 308.2305,
        "meta_ephemeris_type": 0,
        "meta_classification_type": "U",
        "meta_norad_cat_id": 43719,
        "meta_element_set_no": 999,
        "meta_rev_at_epoch": 38103,
        "meta_bstar": 0.00021529917,
        "meta_mean_motion_dot": 1.526e-05,
        "meta_mean_motion_ddot": 0,
        "tle_line1": "1 43719U 18096A   25354.62885641  .00001526  00000+0  21530-3 0  9994",
        "tle_line2": "2 43719  98.0095  57.5686 0001070  51.9002 308.2305 14.78667771381039"
      },
      "geometry": {
        "type": "Point",
        "coordinates": [
          -117.81064807926036,
          28.53248656517461
        ]
      }
    }
  ]
}